start=new Date('2022-04-19T00:00:00.000Z').valueOf();
sats=[{"PERIOD":"95.591","OBJECT_ID":"2021-027AK","MEAN_ELEMENT_THEORY":"SGP4","RCS_SIZE":"LARGE","TLE_LINE2":"2 48125  53.0543  71.0391 0001738  62.5138 297.6027 15.06412096 58232","PERIAPSIS":"545.973","REF_FRAME":"TEME","MEAN_ANOMALY":"297.6027","FILE":"3407402","APOAPSIS":"548.380","BSTAR":"0.00041162000000","INCLINATION":"53.0543","MEAN_MOTION_DDOT":"0.0000000000000","MEAN_MOTION":"15.06412096","ARG_OF_PERICENTER":"62.5138","REV_AT_EPOCH":"5823","ELEMENT_SET_NO":"999","COUNTRY_CODE":"US","TLE_LINE1":"1 48125U 21027AK  22108.62281589  .00005857  00000-0  41162-3 0  9998","OBJECT_TYPE":"PAYLOAD","MEAN_MOTION_DOT":"0.00005857","DECAY_DATE":null,"CENTER_NAME":"EARTH","EPOCH":"2022-04-18T14:56:51.292896","OBJECT_NAME":"STARLINK-2466","GP_ID":"201580179","TIME_SYSTEM":"UTC","CLASSIFICATION_TYPE":"U","SEMIMAJOR_AXIS":"6925.311","EPHEMERIS_TYPE":"0","LAUNCH_DATE":"2021-04-07","SITE":"AFETR","NORAD_CAT_ID":"48125","RA_OF_ASC_NODE":"71.0391","ECCENTRICITY":"0.00017380"},{"RCS_SIZE":"LARGE","TLE_LINE2":"2 48126  53.0559  51.4265 0001530  66.3195 293.7954 15.06421947 58508","PERIAPSIS":"546.087","REF_FRAME":"TEME","PERIOD":"95.591","OBJECT_ID":"2021-027AL","MEAN_ELEMENT_THEORY":"SGP4","APOAPSIS":"548.206","BSTAR":"0.00137850000000","INCLINATION":"53.0559","MEAN_ANOMALY":"293.7954","FILE":"3406909","TLE_LINE1":"1 48126U 21027AL  22108.53347060  .00020323  00000-0  13785-2 0  9990","OBJECT_TYPE":"PAYLOAD","MEAN_MOTION_DOT":"0.00020323","DECAY_DATE":null,"CENTER_NAME":"EARTH","EPOCH":"2022-04-18T12:48:11.859840","MEAN_MOTION_DDOT":"0.0000000000000","MEAN_MOTION":"15.06421947","ARG_OF_PERICENTER":"66.3195","REV_AT_EPOCH":"5850","ELEMENT_SET_NO":"999","COUNTRY_CODE":"US","SITE":"AFETR","NORAD_CAT_ID":"48126","RA_OF_ASC_NODE":"51.4265","ECCENTRICITY":"0.00015300","OBJECT_NAME":"STARLINK-2467","GP_ID":"201545474","TIME_SYSTEM":"UTC","CLASSIFICATION_TYPE":"U","SEMIMAJOR_AXIS":"6925.281","EPHEMERIS_TYPE":"0","LAUNCH_DATE":"2021-04-07"},{"MEAN_MOTION":"15.06403087","MEAN_MOTION_DDOT":"0.0000000000000","COUNTRY_CODE":"US","ELEMENT_SET_NO":"999","REV_AT_EPOCH":"5826","ARG_OF_PERICENTER":"45.2342","MEAN_MOTION_DOT":"0.00001397","OBJECT_TYPE":"PAYLOAD","TLE_LINE1":"1 48127U 21027AM  22108.85597491  .00001397  00000-0  11264-3 0  9992","CENTER_NAME":"EARTH","EPOCH":"2022-04-18T20:32:36.232224","DECAY_DATE":null,"SEMIMAJOR_AXIS":"6925.339","TIME_SYSTEM":"UTC","CLASSIFICATION_TYPE":"U","GP_ID":"201579177","OBJECT_NAME":"STARLINK-2468","LAUNCH_DATE":"2021-04-07","EPHEMERIS_TYPE":"0","RA_OF_ASC_NODE":"69.9955","NORAD_CAT_ID":"48127","SITE":"AFETR","ECCENTRICITY":"0.00019160","OBJECT_ID":"2021-027AM","PERIOD":"95.592","MEAN_ELEMENT_THEORY":"SGP4","TLE_LINE2":"2 48127  53.0552  69.9955 0001916  45.2342 314.8802 15.06403087 58265","RCS_SIZE":"LARGE","REF_FRAME":"TEME","PERIAPSIS":"545.877","MEAN_ANOMALY":"314.8802","FILE":"3407402","INCLINATION":"53.0552","BSTAR":"0.00011264000000","APOAPSIS":"548.531"},{"EPOCH":"2022-04-18T10:19:33.125664","CENTER_NAME":"EARTH","DECAY_DATE":null,"MEAN_MOTION_DOT":"0.00025834","TLE_LINE1":"1 48128U 21027AN  22108.43024451  .00025834  00000-0  17459-2 0  9991","OBJECT_TYPE":"PAYLOAD","ELEMENT_SET_NO":"999","COUNTRY_CODE":"US","ARG_OF_PERICENTER":"89.6669","REV_AT_EPOCH":"5917","MEAN_MOTION_DDOT":"0.0000000000000","MEAN_MOTION":"15.06420212","ECCENTRICITY":"0.00012890","RA_OF_ASC_NODE":"1.9113","SITE":"AFETR","NORAD_CAT_ID":"48128","EPHEMERIS_TYPE":"0","LAUNCH_DATE":"2021-04-07","TIME_SYSTEM":"UTC","CLASSIFICATION_TYPE":"U","SEMIMAJOR_AXIS":"6925.287","OBJECT_NAME":"STARLINK-2469","GP_ID":"201544977","PERIAPSIS":"546.259","REF_FRAME":"TEME","TLE_LINE2":"2 48128  53.0555   1.9113 0001289  89.6669 270.4467 15.06420212 59172","RCS_SIZE":"LARGE","MEAN_ELEMENT_THEORY":"SGP4","PERIOD":"95.591","OBJECT_ID":"2021-027AN","INCLINATION":"53.0555","APOAPSIS":"548.044","BSTAR":"0.00174590000000","FILE":"3406909","MEAN_ANOMALY":"270.4467"},{"MEAN_MOTION":"15.06399547","MEAN_MOTION_DDOT":"0.0000000000000","COUNTRY_CODE":"US","ELEMENT_SET_NO":"999","REV_AT_EPOCH":"5822","ARG_OF_PERICENTER":"63.1549","MEAN_MOTION_DOT":"0.00000405","OBJECT_TYPE":"PAYLOAD","TLE_LINE1":"1 48129U 21027AP  22108.58322272  .00000405  00000-0  46074-4 0  9994","CENTER_NAME":"EARTH","EPOCH":"2022-04-18T13:59:50.443008","DECAY_DATE":null,"SEMIMAJOR_AXIS":"6925.350","TIME_SYSTEM":"UTC","CLASSIFICATION_TYPE":"U","GP_ID":"201580680","OBJECT_NAME":"STARLINK-2471","LAUNCH_DATE":"2021-04-07","EPHEMERIS_TYPE":"0","RA_OF_ASC_NODE":"71.2176","NORAD_CAT_ID":"48129","SITE":"AFETR","ECCENTRICITY":"0.00016030","OBJECT_ID":"2021-027AP","PERIOD":"95.592","MEAN_ELEMENT_THEORY":"SGP4","TLE_LINE2":"2 48129  53.0559  71.2176 0001603  63.1549 296.9603 15.06399547 58226","RCS_SIZE":"LARGE","REF_FRAME":"TEME","PERIAPSIS":"546.105","MEAN_ANOMALY":"296.9603","FILE":"3407402","INCLINATION":"53.0559","BSTAR":"0.00004607400000","APOAPSIS":"548.325"},{"MEAN_MOTION_DDOT":"0.0000000000000","MEAN_MOTION":"15.06399968","ELEMENT_SET_NO":"999","COUNTRY_CODE":"US","ARG_OF_PERICENTER":"59.1274","REV_AT_EPOCH":"5816","MEAN_MOTION_DOT":"0.00001961","TLE_LINE1":"1 48130U 21027AQ  22108.63894527  .00001961  00000-0  15054-3 0  9990","OBJECT_TYPE":"PAYLOAD","EPOCH":"2022-04-18T15:20:04.871328","CENTER_NAME":"EARTH","DECAY_DATE":null,"TIME_SYSTEM":"UTC","CLASSIFICATION_TYPE":"U","SEMIMAJOR_AXIS":"6925.349","OBJECT_NAME":"STARLINK-2472","GP_ID":"201579428","EPHEMERIS_TYPE":"0","LAUNCH_DATE":"2021-04-07","RA_OF_ASC_NODE":"75.9639","SITE":"AFETR","NORAD_CAT_ID":"48130","ECCENTRICITY":"0.00017880","PERIOD":"95.592","OBJECT_ID":"2021-027AQ","MEAN_ELEMENT_THEORY":"SGP4","TLE_LINE2":"2 48130  53.0555  75.9639 0001788  59.1274 300.9891 15.06399968 58168","RCS_SIZE":"LARGE","PERIAPSIS":"545.975","REF_FRAME":"TEME","MEAN_ANOMALY":"300.9891","FILE":"3407402","INCLINATION":"53.0555","APOAPSIS":"548.452","BSTAR":"0.00015054000000"},{"FILE":"3407402","MEAN_ANOMALY":"285.5829","APOAPSIS":"548.312","BSTAR":"0.00046190000000","INCLINATION":"53.0555","MEAN_ELEMENT_THEORY":"SGP4","PERIOD":"95.592","OBJECT_ID":"2021-027AR","PERIAPSIS":"546.146","REF_FRAME":"TEME","RCS_SIZE":"LARGE","TLE_LINE2":"2 48131  53.0555  49.9755 0001564  74.5333 285.5829 15.06394988 58546","EPHEMERIS_TYPE":"0","LAUNCH_DATE":"2021-04-07","OBJECT_NAME":"STARLINK-2473","GP_ID":"201579678","CLASSIFICATION_TYPE":"U","TIME_SYSTEM":"UTC","SEMIMAJOR_AXIS":"6925.364","ECCENTRICITY":"0.00015640","SITE":"AFETR","NORAD_CAT_ID":"48131","RA_OF_ASC_NODE":"49.9755","ARG_OF_PERICENTER":"74.5333","REV_AT_EPOCH":"5854","ELEMENT_SET_NO":"999","COUNTRY_CODE":"US","MEAN_MOTION_DDOT":"0.0000000000000","MEAN_MOTION":"15.06394988","DECAY_DATE":null,"EPOCH":"2022-04-18T20:35:16.044576","CENTER_NAME":"EARTH","TLE_LINE1":"1 48131U 21027AR  22108.85782459  .00006604  00000-0  46190-3 0  9999","OBJECT_TYPE":"PAYLOAD","MEAN_MOTION_DOT":"0.00006604"},{"OBJECT_ID":"2021-027AS","PERIOD":"95.592","MEAN_ELEMENT_THEORY":"SGP4","TLE_LINE2":"2 48132  53.0554  70.0811 0001696  64.5806 295.5358 15.06407255 58252","RCS_SIZE":"LARGE","REF_FRAME":"TEME","PERIAPSIS":"546.017","MEAN_ANOMALY":"295.5358","FILE":"3407402","INCLINATION":"53.0554","BSTAR":"0.00010917000000","APOAPSIS":"548.366","MEAN_MOTION":"15.06407255","MEAN_MOTION_DDOT":"0.0000000000000","COUNTRY_CODE":"US","ELEMENT_SET_NO":"999","REV_AT_EPOCH":"5825","ARG_OF_PERICENTER":"64.5806","MEAN_MOTION_DOT":"0.00001345","OBJECT_TYPE":"PAYLOAD","TLE_LINE1":"1 48132U 21027AS  22108.83754002  .00001345  00000-0  10917-3 0  9996","CENTER_NAME":"EARTH","EPOCH":"2022-04-18T20:06:03.457728","DECAY_DATE":null,"SEMIMAJOR_AXIS":"6925.326","TIME_SYSTEM":"UTC","CLASSIFICATION_TYPE":"U","GP_ID":"201579929","OBJECT_NAME":"STARLINK-2474","LAUNCH_DATE":"2021-04-07","EPHEMERIS_TYPE":"0","RA_OF_ASC_NODE":"70.0811","NORAD_CAT_ID":"48132","SITE":"AFETR","ECCENTRICITY":"0.00016960"},{"TLE_LINE1":"1 48133U 21027AT  22108.17041122 -.00000084  00000-0  13291-4 0  9995","OBJECT_TYPE":"PAYLOAD","MEAN_MOTION_DOT":"-0.00000084","DECAY_DATE":null,"CENTER_NAME":"EARTH","EPOCH":"2022-04-18T04:05:23.529408","MEAN_MOTION_DDOT":"0.0000000000000","MEAN_MOTION":"15.06389543","ARG_OF_PERICENTER":"57.4678","REV_AT_EPOCH":"5816","ELEMENT_SET_NO":"999","COUNTRY_CODE":"US","SITE":"AFETR","NORAD_CAT_ID":"48133","RA_OF_ASC_NODE":"73.0760","ECCENTRICITY":"0.00018240","OBJECT_NAME":"STARLINK-2475","GP_ID":"201545228","CLASSIFICATION_TYPE":"U","TIME_SYSTEM":"UTC","SEMIMAJOR_AXIS":"6925.381","EPHEMERIS_TYPE":"0","LAUNCH_DATE":"2021-04-07","RCS_SIZE":"LARGE","TLE_LINE2":"2 48133  53.0552  73.0760 0001824  57.4678 302.6487 15.06389543 58160","PERIAPSIS":"545.982","REF_FRAME":"TEME","PERIOD":"95.593","OBJECT_ID":"2021-027AT","MEAN_ELEMENT_THEORY":"SGP4","APOAPSIS":"548.509","BSTAR":"0.00001329100000","INCLINATION":"53.0552","MEAN_ANOMALY":"302.6487","FILE":"3406909"},{"PERIAPSIS":"546.109","REF_FRAME":"TEME","TLE_LINE2":"2 48134  53.0553  71.0533 0001586  61.3851 298.7298 15.06402166 58229","RCS_SIZE":"LARGE","MEAN_ELEMENT_THEORY":"SGP4","PERIOD":"95.592","OBJECT_ID":"2021-027AU","INCLINATION":"53.0553","APOAPSIS":"548.305","BSTAR":"0.00008311900000","FILE":"3407402","MEAN_ANOMALY":"298.7298","CENTER_NAME":"EARTH","EPOCH":"2022-04-18T14:52:55.299936","DECAY_DATE":null,"MEAN_MOTION_DOT":"0.00000957","TLE_LINE1":"1 48134U 21027AU  22108.62008449  .00000957  00000-0  83119-4 0  9995","OBJECT_TYPE":"PAYLOAD","ELEMENT_SET_NO":"999","COUNTRY_CODE":"US","ARG_OF_PERICENTER":"61.3851","REV_AT_EPOCH":"5822","MEAN_MOTION_DDOT":"0.0000000000000","MEAN_MOTION":"15.06402166","ECCENTRICITY":"0.00015860","RA_OF_ASC_NODE":"71.0533","SITE":"AFETR","NORAD_CAT_ID":"48134","EPHEMERIS_TYPE":"0","LAUNCH_DATE":"2021-04-07","TIME_SYSTEM":"UTC","CLASSIFICATION_TYPE":"U","SEMIMAJOR_AXIS":"6925.342","OBJECT_NAME":"STARLINK-2476","GP_ID":"201578928"}];
